NUSAT-50 (NANCY ROMAN)  
1 60493U 24149AB  26068.80227738  .00012094  00000+0  42252-3 0  9994
2 60493  97.3817 150.7693 0002523 238.0469 122.0527 15.29713355 86930
STARLINK-34217          
1 64488U 25133S   26068.54133732  .00028581  00000+0  97324-3 0  9995
2 64488  53.1585 117.6300 0001086  81.4506 278.6618 15.30205630 41059
