[{"OBJECT_NAME":"NUSAT-50 (NANCY ROMAN)","OBJECT_ID":"2024-149AB","EPOCH":"2026-03-09T19:15:16.765632","MEAN_MOTION":15.29713355,"ECCENTRICITY":0.00025229,"INCLINATION":97.3817,"RA_OF_ASC_NODE":150.7693,"ARG_OF_PERICENTER":238.0469,"MEAN_ANOMALY":122.0527,"EPHEMERIS_TYPE":0,"CLASSIFICATION_TYPE":"U","NORAD_CAT_ID":60493,"ELEMENT_SET_NO":999,"REV_AT_EPOCH":8693,"BSTAR":0.0004225155,"MEAN_MOTION_DOT":0.00012094,"MEAN_MOTION_DDOT":0},{"OBJECT_NAME":"STARLINK-34217","OBJECT_ID":"2025-133S","EPOCH":"2026-03-09T12:59:31.544448","MEAN_MOTION":15.3020563,"ECCENTRICITY":0.0001086,"INCLINATION":53.1585,"RA_OF_ASC_NODE":117.63,"ARG_OF_PERICENTER":81.4506,"MEAN_ANOMALY":278.6618,"EPHEMERIS_TYPE":0,"CLASSIFICATION_TYPE":"U","NORAD_CAT_ID":64488,"ELEMENT_SET_NO":999,"REV_AT_EPOCH":4105,"BSTAR":0.00097324,"MEAN_MOTION_DOT":0.00028581,"MEAN_MOTION_DDOT":0}]
